{
    "links": {
        "self": "http://www.neowsapp.com/rest/v1/neo/3766052?api_key=iIulBulltgU6a56xZRHN4H3l9WmuAYTsLGpBGhQ2"
    },
    "id": "3766052",
    "neo_reference_id": "3766052",
    "name": "(2016 YF)",
    "designation": "2016 YF",
    "nasa_jpl_url": "http://ssd.jpl.nasa.gov/sbdb.cgi?sstr=3766052",
    "absolute_magnitude_h": 25.4,
    "estimated_diameter": {
        "kilometers": {
            "estimated_diameter_min": 0.022108281,
            "estimated_diameter_max": 0.0494356193
        },
        "meters": {
            "estimated_diameter_min": 22.1082810359,
            "estimated_diameter_max": 49.435619262
        },
        "miles": {
            "estimated_diameter_min": 0.0137374447,
            "estimated_diameter_max": 0.0307178602
        },
        "feet": {
            "estimated_diameter_min": 72.5337327539,
            "estimated_diameter_max": 162.1903570994
        }
    },
    "is_potentially_hazardous_asteroid": false,
    "close_approach_data": [
        {
            "close_approach_date": "1913-02-19",
            "close_approach_date_full": "1913-Feb-19 10:15",
            "epoch_date_close_approach": -1794491100000,
            "relative_velocity": {
                "kilometers_per_second": "21.2276437061",
                "kilometers_per_hour": "76419.5173417807",
                "miles_per_hour": "47484.1162060637"
            },
            "miss_distance": {
                "astronomical": "0.4971865708",
                "lunar": "193.4055760412",
                "kilometers": "74378051.984284196",
                "miles": "46216378.4210900648"
            },
            "orbiting_body": "Earth"
        },
        {
            "close_approach_date": "1917-02-17",
            "close_approach_date_full": "1917-Feb-17 19:59",
            "epoch_date_close_approach": -1668398460000,
            "relative_velocity": {
                "kilometers_per_second": "20.6186180985",
                "kilometers_per_hour": "74227.0251544837",
                "miles_per_hour": "46121.7868244624"
            },
            "miss_distance": {
                "astronomical": "0.4821393533",
                "lunar": "187.5522084337",
                "kilometers": "72127020.296857471",
                "miles": "44817652.1903202598"
            },
            "orbiting_body": "Earth"
        },
        {
            "close_approach_date": "2016-12-24",
            "close_approach_date_full": "2016-Dec-24 20:53",
            "epoch_date_close_approach": 1482612780000,
            "relative_velocity": {
                "kilometers_per_second": "7.7018633739",
                "kilometers_per_hour": "27726.7081460803",
                "miles_per_hour": "17228.2981811019"
            },
            "miss_distance": {
                "astronomical": "0.0223136577",
                "lunar": "8.6800128453",
                "kilometers": "3338075.663829099",
                "miles": "2074184.0363116062"
            },
            "orbiting_body": "Earth"
        }
    ],
    "orbital_data": {
        "orbit_id": "13",
        "orbit_determination_date": "2017-04-06 08:21:27",
        "first_observation_date": "2016-12-18",
        "last_observation_date": "2017-01-04",
        "data_arc_in_days": 17,
        "observations_used": 89,
        "orbit_uncertainty": "7",
        "minimum_orbit_intersection": ".0123113",
        "jupiter_tisserand_invariant": "3.181",
        "epoch_osculation": "2459000.5",
        "eccentricity": ".6032369896209273",
        "semi_major_axis": "2.506251184000667",
        "inclination": "3.799222785997228",
        "ascending_node_longitude": "271.858902508172",
        "orbital_period": "1449.223339202474",
        "perihelion_distance": ".9943877645302199",
        "perihelion_argument": "186.4275754334419",
        "aphelion_distance": "4.018114603471115",
        "perihelion_time": "2459203.318820427464",
        "mean_anomaly": "309.6179964959244",
        "mean_motion": ".2484089168741324",
        "equinox": "J2000",
        "orbit_class": {
            "orbit_class_type": "APO",
            "orbit_class_description": "Near-Earth asteroid orbits which cross the Earth’s orbit similar to that of 1862 Apollo",
            "orbit_class_range": "a (semi-major axis) > 1.0 AU; q (perihelion) < 1.017 AU"
        }
    },
    "is_sentry_object": false
}